[{"OBJECT_NAME":"STARLINK-34281","OBJECT_ID":"2025-120E","EPOCH":"2026-03-09T12:53:23.184096","MEAN_MOTION":15.30201595,"ECCENTRICITY":0.00012148,"INCLINATION":53.1584,"RA_OF_ASC_NODE":117.34,"ARG_OF_PERICENTER":87.7826,"MEAN_ANOMALY":272.3314,"EPHEMERIS_TYPE":0,"CLASSIFICATION_TYPE":"U","NORAD_CAT_ID":64260,"ELEMENT_SET_NO":999,"REV_AT_EPOCH":4384,"BSTAR":0.00084394621,"MEAN_MOTION_DOT":0.0002472,"MEAN_MOTION_DDOT":0},{"OBJECT_NAME":"CERISE","OBJECT_ID":"1995-033B","EPOCH":"2026-03-09T23:11:27.589056","MEAN_MOTION":15.32047731,"ECCENTRICITY":0.00057118,"INCLINATION":98.325,"RA_OF_ASC_NODE":273.5192,"ARG_OF_PERICENTER":211.8754,"MEAN_ANOMALY":148.214,"EPHEMERIS_TYPE":0,"CLASSIFICATION_TYPE":"U","NORAD_CAT_ID":23606,"ELEMENT_SET_NO":999,"REV_AT_EPOCH":66468,"BSTAR":0.00062940675,"MEAN_MOTION_DOT":0.00019422,"MEAN_MOTION_DDOT":0}]
